[{"OBJECT_NAME":"STARLINK-33845","OBJECT_ID":"2025-071C","EPOCH":"2026-03-09T12:05:36.329280","MEAN_MOTION":15.30185595,"ECCENTRICITY":0.00012685,"INCLINATION":53.1585,"RA_OF_ASC_NODE":140.633,"ARG_OF_PERICENTER":85.2768,"MEAN_ANOMALY":274.8377,"EPHEMERIS_TYPE":0,"CLASSIFICATION_TYPE":"U","NORAD_CAT_ID":63495,"ELEMENT_SET_NO":999,"REV_AT_EPOCH":5272,"BSTAR":0.00078172758,"MEAN_MOTION_DOT":0.00022854,"MEAN_MOTION_DDOT":0},{"OBJECT_NAME":"OBJECT BD","OBJECT_ID":"2025-313BD","EPOCH":"2026-03-09T15:06:44.992224","MEAN_MOTION":15.3000236,"ECCENTRICITY":0.00072867,"INCLINATION":97.397,"RA_OF_ASC_NODE":145.285,"ARG_OF_PERICENTER":333.4514,"MEAN_ANOMALY":26.6352,"EPHEMERIS_TYPE":0,"CLASSIFICATION_TYPE":"U","NORAD_CAT_ID":67299,"ELEMENT_SET_NO":999,"REV_AT_EPOCH":1083,"BSTAR":0.0027633805,"MEAN_MOTION_DOT":0.0008101,"MEAN_MOTION_DDOT":0}]
